[{"OBJECT_NAME":"STARLINK-34529","OBJECT_ID":"2025-158E","EPOCH":"2026-03-09T14:58:30.160416","MEAN_MOTION":15.05656113,"ECCENTRICITY":0.0002377,"INCLINATION":97.6026,"RA_OF_ASC_NODE":293.9861,"ARG_OF_PERICENTER":80.3711,"MEAN_ANOMALY":279.7784,"EPHEMERIS_TYPE":0,"CLASSIFICATION_TYPE":"U","NORAD_CAT_ID":64936,"ELEMENT_SET_NO":999,"REV_AT_EPOCH":3534,"BSTAR":0.00034875,"MEAN_MOTION_DOT":4.976e-5,"MEAN_MOTION_DDOT":0},{"OBJECT_NAME":"THOR ABLESTAR DEB","OBJECT_ID":"1961-015EX","EPOCH":"2026-03-09T22:58:31.837152","MEAN_MOTION":15.04262729,"ECCENTRICITY":0.00191468,"INCLINATION":67.4961,"RA_OF_ASC_NODE":12.7011,"ARG_OF_PERICENTER":32.2919,"MEAN_ANOMALY":327.9391,"EPHEMERIS_TYPE":0,"CLASSIFICATION_TYPE":"U","NORAD_CAT_ID":461,"ELEMENT_SET_NO":999,"REV_AT_EPOCH":37086,"BSTAR":0.0020469071,"MEAN_MOTION_DOT":0.00028661,"MEAN_MOTION_DDOT":0}]
